AMGU-1 (AMURSAT)        
1 44394U 19038J   22023.87826495  .00005350  00000+0  29059-3 0  9993
2 44394  97.6142 352.9629 0018845 273.5392  86.3682 15.14801929141131
DOT-1                   
1 44399U 19038P   22023.46398849  .00002936  00000+0  16699-3 0  9993
2 44399  97.6217 351.7380 0022188 279.7272  80.1452 15.13473863141004
SOKRAT                  
1 44404U 19038U   22023.52501023  .00004484  00000+0  24519-3 0  9997
2 44404  97.6177 352.3176 0019285 276.5215  83.3821 15.14647170141068
LUCKY-7                 
1 44406U 19038W   22023.83821957  .00002923  00000+0  16476-3 0  9993
2 44406  97.6210 352.4050 0021948 270.0586  89.8130 15.13813015141076
D-STAR ONE (EXOCONNECT) 
1 44410U 19038AA  22023.47421759  .00006287  00000+0  32961-3 0  9998
2 44410  97.6139 352.7866 0018588 273.0655  86.8451 15.15990466141100
NARSSCUBE-2             
1 44415U 19022E   22023.57949614  .00003166  00000+0  11153-3 0  9995
2 44415  51.6418  97.6747 0010410 254.9781 105.0049 15.32323423137881
DUCHIFAT-3              
1 44854U 19089C   22023.77326211  .00002010  00000+0  16473-3 0  9996
2 44854  36.9642 237.3047 0006323 124.0011 236.1300 15.00012969116192
OPS-SAT                 
1 44878U 19092F   22023.50953276  .00004835  00000+0  24306-3 0  9995
2 44878  97.4752 208.9963 0014463 121.7518 238.5127 15.17633368116196
FLORIPASAT-1            
1 44885U 19093G   22023.80363825  .00001109  00000+0  14436-3 0  9996
2 44885  97.9098 105.9848 0013467 306.9690  53.0275 14.82583213113411
HUSKYSAT-1 (HO-107)     
1 45119U 19071J   22023.32641839  .00010226  00000+0  27412-3 0  9992
2 45119  51.6413  48.9691 0010808   9.1149 351.0029 15.38535079110985
G-SAT                   
1 45597U 98067RK  22023.32082481  .00069516  00000+0  53442-3 0  9994
2 45597  51.6359 298.3553 0004317 106.4948 253.6524 15.71371344 98991
QUETZAL-1               
1 45598U 98067RL  22023.09260987  .00171308  00000+0  74571-3 0  9997
2 45598  51.6341 290.7531 0004955 151.8262 208.3010 15.83735188 99009
BY70-2                  
1 45857U 20042B   22023.82635757  .00003755  00000+0  52777-3 0  9999
2 45857  97.9687 102.2153 0010446 217.6806 142.3633 14.77942989 84088
SALSAT                  
1 46495U 20068K   22022.80550673  .00001026  00000+0  78968-4 0  9996
2 46495  97.7154 324.2811 0018779  53.2730 307.0124 15.03802458 72299
NETSAT-4                
1 46504U 20068U   22023.63665861  .00002473  00000+0  19030-3 0  9996
2 46504  97.7086 323.9333 0012965  96.3976 263.8723 15.02546080 72299
NETSAT-3                
1 46505U 20068V   22023.58182487  .00002413  00000+0  18613-3 0  9999
2 46505  97.7085 323.8200 0011662 100.2214 260.0346 15.02494071 72296
NETSAT-1                
1 46506U 20068W   22023.39381942  .00001189  00000+0  94217-4 0  9990
2 46506  97.7098 323.5914 0010674 104.5400 255.7003 15.02443327 72262
NETSAT-2                
1 46507U 20068X   22023.40078863  .00001134  00000+0  90097-4 0  9990
2 46507  97.7118 323.5958 0010282 108.3258 251.9081 15.02437066 72214
BY70-3                  
1 46839U 20079N   22023.76797977  .00009939  00000+0  28257-3 0  9992
2 46839  97.2187  98.2948 0007910 126.5516  22.2150 15.36319516 67992
SPOC                    
1 46921U 98067RR  22023.83895877  .00032640  00000+0  35866-3 0  9991
2 46921  51.6392 311.6430 0002469 147.1156 212.9992 15.62875421 69206
BOBCAT-1                
1 46922U 98067RS  22023.19854476  .00083599  00000+0  65150-3 0  9999
2 46922  51.6396 307.3968 0003309 148.5217 211.5980 15.70976051 69174
NEUTRON-1               
1 46923U 98067RT  22023.61649840  .00034662  00000+0  38219-3 0  9997
2 46923  51.6398 313.1615 0002252 152.4277 207.6837 15.62757247 69191
DESCENT                 
1 46927U 98067RX  22023.10327676  .00035811  00000+0  39268-3 0  9997
2 46927  51.6401 315.7310 0001900 164.7262 195.3790 15.62883835 69036
UVSQ-SAT                
1 47438U 21006AB  22023.41182140  .00002518  00000+0  14210-3 0  9991
2 47438  97.4595  85.4350 0013815  61.9088 298.3538 15.13976311 55322
SOMP2B                  
1 47445U 21006AJ  22023.58435553  .00002854  00000+0  16152-3 0  9996
2 47445  97.4567  85.3776 0013510  65.1331 295.1303 15.13767215 55347
WARP-01                 
1 47924U 98067SA  22023.82789086  .00052918  00000+0  55561-3 0  9992
2 47924  51.6382 318.2819 0004036 175.9355 184.1673 15.63810435 49114
RSP-01                  
1 47925U 98067SB  22023.53957905  .00038543  00000+0  45918-3 0  9991
2 47925  51.6412 321.6395 0003201 122.6632 237.4671 15.60696754 49029
TAUSAT-1                
1 47926U 98067SC  22023.36396965  .00060794  00000+0  62842-3 0  9994
2 47926  51.6400 319.6946 0004274 125.8466 234.2927 15.64147610 49022
TSURU                   
1 47927U 98067SD  22023.74462425  .00032420  00000+0  40485-3 0  9996
2 47927  51.6405 321.5054 0003091 122.1254 238.0039 15.59545800 49046
STARS-EC                
1 47928U 98067SE  22023.54702715  .00063263  00000+0  63318-3 0  9993
2 47928  51.6392 319.4186 0004367 177.0138 183.0884 15.64946172 49030
MAYA-2                  
1 47929U 98067SF  22023.22765810  .00037488  00000+0  46763-3 0  9999
2 47929  51.6409 324.0506 0003162 117.5075 242.6240 15.59502182 48927
HIROGARI (OPUSAT-II)    
1 47930U 98067SG  22023.50931674  .00066815  00000+0  64359-3 0  9992
2 47930  51.6385 318.4274 0003995 124.1665 235.9710 15.65886829 49067
GUARANISAT-1            
1 47931U 98067SH  22023.54301241  .00034101  00000+0  42464-3 0  9994
2 47931  51.6416 322.4155 0003240 118.7327 241.3992 15.59594693 49019
DIY-1 (ARDUIQUBE)       
1 47963U 21022AH  22023.45979562  .00007668  00000+0  48482-3 0  9997
2 47963  97.5449 286.9127 0016878 274.0008  85.9292 15.09187228 45057
